BEIDOU 3 (C01)          
1 36287U 10001A   21218.81507666 -.00000280  00000-0  00000-0 0  9992
2 36287   1.9512  48.2477 0005769  87.0200 254.1777  1.00271021 42353
BEIDOU 5 (C06)          
1 36828U 10036A   21215.30852622 -.00000084  00000-0  00000+0 0  9998
2 36828  54.1793 179.1564 0114804 235.4859 123.3234  1.00245676 40389
BEIDOU 6 (C04)          
1 37210U 10057A   21218.76292926 -.00000111  00000-0  00000-0 0  9997
2 37210   0.9228  52.6252 0005745 126.6422 210.9500  1.00272522 39484
BEIDOU 7 (C07)          
1 37256U 10068A   21218.66964008 -.00000183  00000-0  00000-0 0  9994
2 37256  50.7742 293.3970 0092041 217.8291 162.2559  1.00296807 38991
BEIDOU 8 (C08)          
1 37384U 11013A   21218.87840603 -.00000161  00000-0  00000-0 0  9990
2 37384  59.8435  57.3908 0054414 206.7301 125.6472  1.00292059 37869
BEIDOU 9 (C09)          
1 37763U 11038A   21219.24669803 -.00000060  00000-0  00000+0 0  9998
2 37763  54.4697 181.5718 0084357 227.0181  88.9151  1.00255111 36841
BEIDOU 10 (C10)         
1 37948U 11073A   21219.11353612 -.00000125  00000-0  00000+0 0  9998
2 37948  50.8762 293.0211 0077729 215.7470 303.9388  1.00282057 35600
BEIDOU 11 (C05)         
1 38091U 12008A   21218.79535707  .00000056  00000-0  00000-0 0  9990
2 38091   1.6641  69.0085 0006927 339.0509 252.5957  1.00276358 34679
BEIDOU 12 (C11)         
1 38250U 12018A   21219.02686714 -.00000083  00000-0  00000+0 0  9990
2 38250  56.7515   3.9426 0020884 244.1569 117.2028  1.86234316 63235
BEIDOU 13 (C12)         
1 38251U 12018B   21218.42420420 -.00000085  00000-0  00000+0 0  9996
2 38251  56.6756   3.3094 0011798 243.6095 118.0670  1.86234136 63220
BEIDOU 15 (C14)         
1 38775U 12050B   21218.53291976 -.00000025  00000-0  00000+0 0  9991
2 38775  55.2304 122.2959 0014693 323.6479 308.3310  1.86232262 60598
BEIDOU 16 (C02)         
1 38953U 12059A   21218.89771558 -.00000176  00000-0  00000-0 0  9994
2 38953   1.2166  83.8901 0010918 297.5511 341.4215  1.00275175 32243
BEIDOU 17 (C31)         
1 40549U 15019A   21218.74940769 -.00000157  00000-0  00000-0 0  9992
2 40549  52.4142 316.4105 0039875 188.7178 173.3130  1.00255258 23285
BEIDOU 18 (C57)         
1 40748U 15037A   21219.09339664 -.00000085  00000-0  00000+0 0  9997
2 40748  55.9340   2.3423 0003460  51.8712 308.2944  1.86233419 41060
BEIDOU 19 (C58)         
1 40749U 15037B   21219.17437056 -.00000084  00000-0  00000+0 0  9990
2 40749  55.9388   2.3304 0002318 336.9725 213.3660  1.86232137 41059
BEIDOU 20 (C18)         
1 40938U 15053A   21218.61223657 -.00000089  00000-0  00000-0 0  9992
2 40938  51.9852 279.4896 0048530 194.1284 158.6823  1.00272267 21542
BEIDOU IGSO-6 (C13)     
1 41434U 16021A   21219.24337743 -.00000118  00000-0  00000+0 0  9994
2 41434  57.6288  56.1075 0038503 210.9523 230.9043  1.00259356 19685
BEIDOU-2 G7 (C03)       
1 41586U 16037A   21218.60953133 -.00000353  00000-0  00000-0 0  9997
2 41586   1.8030  68.2205 0008188  19.3883 197.6504  1.00268336 18985
BEIDOU-3 M1 (C19)       
1 43001U 17069A   21218.87983309 -.00000021  00000-0  00000+0 0  9995
2 43001  55.3847 122.2422 0010253 294.8146   5.7071  1.86231837 25536
BEIDOU-3 M2 (C20)       
1 43002U 17069B   21218.80837306 -.00000022  00000-0  00000-0 0  9996
2 43002  55.3848 122.2812 0009208 316.5618 339.4507  1.86231366 25522
BEIDOU-3 M3 (C27)       
1 43107U 18003A   21218.92628413 -.00000086  00000-0  00000+0 0  9990
2 43107  55.3783   3.4058 0005200  62.4111 118.5563  1.86232518 24292
BEIDOU-3 M4 (C28)       
1 43108U 18003B   21219.12549447 -.00000085  00000-0  00000+0 0  9992
2 43108  55.3722   3.3877 0002455 220.3133 139.3934  1.86232541 24291
BEIDOU-3 M5 (C21)       
1 43207U 18018A   21217.96229671 -.00000031  00000-0  00000-0 0  9994
2 43207  55.3437 122.3983 0006870 338.6185  21.3834  1.86231716 23661
BEIDOU-3 M6 (C22)       
1 43208U 18018B   21218.02899894 -.00000031  00000-0  00000+0 0  9992
2 43208  55.3432 122.4004 0008337 307.6509  52.3024  1.86231620 23667
BEIDOU-3 M7 (C29)       
1 43245U 18029A   21219.13780458 -.00000086  00000-0  00000+0 0  9993
2 43245  55.3072   1.1878 0001176 112.0909 120.9154  1.86232647 22830
BEIDOU-3 M8 (C30)       
1 43246U 18029B   21218.99293238 -.00000086  00000-0  10000-3 0  9997
2 43246  55.3047   1.2230 0003267   6.5428 175.5675  1.86233228 22821
BEIDOU IGSO-7 (C16)     
1 43539U 18057A   21219.17027449 -.00000126  00000-0  00000+0 0  9993
2 43539  55.0638 178.4990 0038914 223.6011  86.3437  1.00253329 11357
BEIDOU-3 M9 (C23)       
1 43581U 18062A   21218.56120394  .00000084  00000-0  00000-0 0  9994
2 43581  54.3850 242.8763 0006101 264.6976 198.1522  1.86231874 20569
BEIDOU-3 M10 (C24)      
1 43582U 18062B   21218.80297054  .00000083  00000-0  00000-0 0  9999
2 43582  54.3823 242.8592 0004671 325.9281  30.3977  1.86232172 20563
BEIDOU-3 M11 (C25)      
1 43602U 18067A   21218.66721308  .00000084  00000-0  00000-0 0  9996
2 43602  54.4600 241.4505 0006460 350.1515 317.2951  1.86231655 20055
BEIDOU-3 M12 (C26)      
1 43603U 18067B   21218.56150400  .00000085  00000-0  00000-0 0  9996
2 43603  54.4566 241.4215 0004060 330.4710 176.5540  1.86231592 20079
BEIDOU-3 M13 (C32)      
1 43622U 18072A   21218.74475288 -.00000023  00000-0  00000-0 0  9990
2 43622  55.3088 121.9382 0006751 293.3812   6.5468  1.86231914 19588
BEIDOU-3 M14 (C33)      
1 43623U 18072B   21218.61021164 -.00000024  00000-0  00000-0 0  9998
2 43623  55.3109 121.9340 0005546 319.5162 340.4450  1.86231933 19589
BEIDOU-3 M15 (C34)      
1 43647U 18078A   21218.66643480 -.00000088  00000-0  10000-3 0  9990
2 43647  55.2006   1.3896 0005775   8.6120 224.2652  1.86232782 19093
BEIDOU-3 M16 (C35)      
1 43648U 18078B   21218.72498164 -.00000088  00000-0  00000-0 0  9991
2 43648  55.1974   1.3946 0004093  27.1659 153.3399  1.86232325 19114
BEIDOU-3 G1 (C59)       
1 43683U 18085A   21218.60952045 -.00000279  00000-0  00000-0 0  9990
2 43683   0.9866 220.8797 0003740   5.9308  87.8496  1.00266218 10255
BEIDOU-3 M17 (C36)      
1 43706U 18093A   21218.07222836  .00000086  00000-0  00000-0 0  9999
2 43706  54.4645 242.7562 0011740 267.8209  92.1152  1.86232055 18466
BEIDOU-3 M18 (C37)      
1 43707U 18093B   21218.76994428  .00000083  00000-0  00000+0 0  9995
2 43707  54.4641 242.7240 0009717 287.3840 271.2358  1.86232139 18466
BEIDOU-3 IGSO-1 (C38)   
1 44204U 19023A   21218.96885527 -.00000185  00000-0  00000+0 0  9997
2 44204  56.0892  56.3646 0019435 188.0974 174.0175  1.00280368  8567
BEIDOU-2 G8             
1 44231U 19027A   21217.70396781 -.00000245  00000-0  00000-0 0  9999
2 44231   0.2585  15.1647 0006624 179.7341 157.4369  1.00275051  8251
BEIDOU-3 IGSO-2 (C39)   
1 44337U 19035A   21215.30782832 -.00000095  00000-0  00000+0 0  9997
2 44337  55.0964 174.5721 0020264 193.0950 162.7140  1.00268053  7856
BEIDOU-3 M23 (C45)      
1 44542U 19061A   21219.06806252  .00000083  00000-0  10000-3 0  9995
2 44542  54.6880 242.8031 0008615 315.2895  36.0627  1.86231342 12721
BEIDOU-3 M24 (C46)      
1 44543U 19061B   21218.13799453  .00000086  00000-0  10000-3 0  9990
2 44543  54.6868 242.8044 0006473 298.8757  59.8317  1.86231710 12701
BEIDOU-3 IGSO-3         
1 44709U 19073A   21218.91178250 -.00000146  00000-0  00000-0 0  9993
2 44709  57.7650 299.6414 0021416 202.1463 248.0383  1.00262805  6652
BEIDOU-3 M21            
1 44793U 19078A   21218.65820898 -.00000081  00000-0  34430+2 0  9997
2 44793  55.0494   1.4498 0005811  15.7528 165.9864  1.86232554 11585
BEIDOU-3 M22            
1 44794U 19078B   21218.79215330 -.00000088  00000-0  00000-0 0  9994
2 44794  55.0240   1.4430 0003867  19.5815 163.0394  1.86232841 11587
BEIDOU-3 M19            
1 44864U 19090A   21219.21226351 -.00000018  00000-0  00000+0 0  9991
2 44864  55.2444 122.1504 0016289 270.3497  28.5316  1.86231953 11178
BEIDOU-3 M20            
1 44865U 19090B   21219.08005729 -.00000019  00000-0  00000+0 0  9992
2 44865  55.2465 122.1849 0015066 285.0918  15.0640  1.86231913 11141
BEIDOU-3 G2             
1 45344U 20017A   21218.83799653 -.00000136  00000-0  00000-0 0  9995
2 45344   2.3657 338.2603 0004237 146.3496 212.6871  1.00271496  5461
BEIDOU-3 G3             
1 45807U 20040A   21218.82482875 -.00000350  00000-0  00000-0 0  9997
2 45807   2.1678 298.7461 0007017 340.7949  83.5138  1.00273447  4288
